[
    {
        "Altitude(m)": 707975.9973757167,
        "Argument of Periapsis(deg)": 0.004556048474650827,
        "Eccentricity": 0.0,
        "Inclination(deg)": 45.0,
        "Latitude(deg)": -19.614841366954394,
        "Longitude(deg)": -6.051511716541404,
        "Mean Anomaly(deg)": -28.11401334100767,
        "RAAN(deg)": 114.99569922341671,
        "Satellite Name": "Constellation 1 526",
        "Satellite Number": 526,
        "Semi-Major Axis(m)": 7083131.272910544,
        "Time(s)": 76
    },
    {
        "Altitude(m)": 707962.9668441445,
        "Argument of Periapsis(deg)": 0.004615996480896233,
        "Eccentricity": 0.0,
        "Inclination(deg)": 45.0,
        "Latitude(deg)": -19.574510331082273,
        "Longitude(deg)": -6.0074178406370535,
        "Mean Anomaly(deg)": -28.053312200757773,
        "RAAN(deg)": 114.99564263425115,
        "Satellite Name": "Constellation 1 526",
        "Satellite Number": 526,
        "Semi-Major Axis(m)": 7083131.272910544,
        "Time(s)": 77
    },
    {
        "Altitude(m)": 707949.9449089334,
        "Argument of Periapsis(deg)": 0.004675944487141638,
        "Eccentricity": 0.0,
        "Inclination(deg)": 45.0,
        "Latitude(deg)": -19.534166152791645,
        "Longitude(deg)": -5.963347820648492,
        "Mean Anomaly(deg)": -27.99261106050791,
        "RAAN(deg)": 114.99558604508557,
        "Satellite Name": "Constellation 1 526",
        "Satellite Number": 526,
        "Semi-Major Axis(m)": 7083131.272910544,
        "Time(s)": 78
    },
    {
        "Altitude(m)": 707936.9316121095,
        "Argument of Periapsis(deg)": 0.004735892493387044,
        "Eccentricity": 0.0,
        "Inclination(deg)": 45.0,
        "Latitude(deg)": -19.493808867196265,
        "Longitude(deg)": -5.919301599078655,
        "Mean Anomaly(deg)": -27.931909920257933,
        "RAAN(deg)": 114.99552945592,
        "Satellite Name": "Constellation 1 526",
        "Satellite Number": 526,
        "Semi-Major Axis(m)": 7083131.272910544,
        "Time(s)": 79
    },
    {
        "Altitude(m)": 707923.9269956622,
        "Argument of Periapsis(deg)": 0.004795840499632449,
        "Eccentricity": 0.0,
        "Inclination(deg)": 45.0,
        "Latitude(deg)": -19.45343850936369,
        "Longitude(deg)": -5.875279118459022,
        "Mean Anomaly(deg)": -27.871208780008086,
        "RAAN(deg)": 114.99547286675443,
        "Satellite Name": "Constellation 1 526",
        "Satellite Number": 526,
        "Semi-Major Axis(m)": 7083131.272910544,
        "Time(s)": 80
    },
    {
        "Altitude(m)": 707910.931101527,
        "Argument of Periapsis(deg)": 0.004855788505877855,
        "Eccentricity": 0.0,
        "Inclination(deg)": 45.0,
        "Latitude(deg)": -19.413055114314854,
        "Longitude(deg)": -5.831280321348749,
        "Mean Anomaly(deg)": -27.81050763975814,
        "RAAN(deg)": 114.99541627758887,
        "Satellite Name": "Constellation 1 526",
        "Satellite Number": 526,
        "Semi-Major Axis(m)": 7083131.272910544,
        "Time(s)": 81
    },
    {
        "Altitude(m)": 707897.943971584,
        "Argument of Periapsis(deg)": 0.00491573651212326,
        "Eccentricity": 0.0,
        "Inclination(deg)": 45.0,
        "Latitude(deg)": -19.372658717025065,
        "Longitude(deg)": -5.787305318432708,
        "Mean Anomaly(deg)": -27.749806499508317,
        "RAAN(deg)": 114.99535968842328,
        "Satellite Name": "Constellation 1 526",
        "Satellite Number": 526,
        "Semi-Major Axis(m)": 7083131.272910544,
        "Time(s)": 82
    },
    {
        "Altitude(m)": 707884.965647681,
        "Argument of Periapsis(deg)": 0.004975684518368666,
        "Eccentricity": 0.0,
        "Inclination(deg)": 45.0,
        "Latitude(deg)": -19.33224935242228,
        "Longitude(deg)": -5.743353716132507,
        "Mean Anomaly(deg)": -27.689105359258363,
        "RAAN(deg)": 114.99530309925773,
        "Satellite Name": "Constellation 1 526",
        "Satellite Number": 526,
        "Semi-Major Axis(m)": 7083131.272910544,
        "Time(s)": 83
    },
    {
        "Altitude(m)": 707871.9961716001,
        "Argument of Periapsis(deg)": 0.005035632524614072,
        "Eccentricity": 0.0,
        "Inclination(deg)": 45.0,
        "Latitude(deg)": -19.291827055389643,
        "Longitude(deg)": -5.699425625189669,
        "Mean Anomaly(deg)": -27.62840421900844,
        "RAAN(deg)": 114.99524651009213,
        "Satellite Name": "Constellation 1 526",
        "Satellite Number": 526,
        "Semi-Major Axis(m)": 7083131.272910544,
        "Time(s)": 84
    },
    {
        "Altitude(m)": 707859.0355850902,
        "Argument of Periapsis(deg)": 0.0050955805308594785,
        "Eccentricity": 0.0,
        "Inclination(deg)": 45.0,
        "Latitude(deg)": -19.251391860764073,
        "Longitude(deg)": -5.655520988276955,
        "Mean Anomaly(deg)": -27.56770307875859,
        "RAAN(deg)": 114.99518992092658,
        "Satellite Name": "Constellation 1 526",
        "Satellite Number": 526,
        "Semi-Major Axis(m)": 7083131.272910544,
        "Time(s)": 85
    },
    {
        "Altitude(m)": 707846.0839298414,
        "Argument of Periapsis(deg)": 0.005155528537104883,
        "Eccentricity": 0.0,
        "Inclination(deg)": 45.0,
        "Latitude(deg)": -19.210943803336622,
        "Longitude(deg)": -5.611639748095489,
        "Mean Anomaly(deg)": -27.507001938508743,
        "RAAN(deg)": 114.99513333176102,
        "Satellite Name": "Constellation 1 526",
        "Satellite Number": 526,
        "Semi-Major Axis(m)": 7083131.272910544,
        "Time(s)": 86
    },
    {
        "Altitude(m)": 707833.1412475028,
        "Argument of Periapsis(deg)": 0.0052154765433502885,
        "Eccentricity": 0.0,
        "Inclination(deg)": 45.0,
        "Latitude(deg)": -19.17048291785266,
        "Longitude(deg)": -5.567781847374932,
        "Mean Anomaly(deg)": -27.446300798258754,
        "RAAN(deg)": 114.99507674259544,
        "Satellite Name": "Constellation 1 526",
        "Satellite Number": 526,
        "Semi-Major Axis(m)": 7083131.272910544,
        "Time(s)": 87
    },
    {
        "Altitude(m)": 707820.207579666,
        "Argument of Periapsis(deg)": 0.005275424549595694,
        "Eccentricity": 0.0,
        "Inclination(deg)": 45.0,
        "Latitude(deg)": -19.13000923901225,
        "Longitude(deg)": -5.523947228873844,
        "Mean Anomaly(deg)": -27.385599658008857,
        "RAAN(deg)": 114.99502015342988,
        "Satellite Name": "Constellation 1 526",
        "Satellite Number": 526,
        "Semi-Major Axis(m)": 7083131.272910544,
        "Time(s)": 88
    },
    {
        "Altitude(m)": 707807.2829678779,
        "Argument of Periapsis(deg)": 0.0053353725558411,
        "Eccentricity": 0.0,
        "Inclination(deg)": 45.0,
        "Latitude(deg)": -19.089522801470185,
        "Longitude(deg)": -5.480136003476319,
        "Mean Anomaly(deg)": -27.32489851775901,
        "RAAN(deg)": 114.99496356426432,
        "Satellite Name": "Constellation 1 526",
        "Satellite Number": 526,
        "Semi-Major Axis(m)": 7083131.272910544,
        "Time(s)": 89
    },
    {
        "Altitude(m)": 707794.3674536403,
        "Argument of Periapsis(deg)": 0.005395320562086505,
        "Eccentricity": 0.0,
        "Inclination(deg)": 45.0,
        "Latitude(deg)": -19.049023639834953,
        "Longitude(deg)": -5.436347777803825,
        "Mean Anomaly(deg)": -27.26419737750908,
        "RAAN(deg)": 114.99490697509873,
        "Satellite Name": "Constellation 1 526",
        "Satellite Number": 526,
        "Semi-Major Axis(m)": 7083131.272910544,
        "Time(s)": 90
    },
    {
        "Altitude(m)": 707781.4610783991,
        "Argument of Periapsis(deg)": 0.00545526856833191,
        "Eccentricity": 0.0,
        "Inclination(deg)": 45.0,
        "Latitude(deg)": -19.008511788670905,
        "Longitude(deg)": -5.392582662797919,
        "Mean Anomaly(deg)": -27.203496237259134,
        "RAAN(deg)": 114.99485038593318,
        "Satellite Name": "Constellation 1 526",
        "Satellite Number": 526,
        "Semi-Major Axis(m)": 7083131.272910544,
        "Time(s)": 91
    },
    {
        "Altitude(m)": 707768.5638835521,
        "Argument of Periapsis(deg)": 0.005515216574577317,
        "Eccentricity": 0.0,
        "Inclination(deg)": 45.0,
        "Latitude(deg)": -18.967987282497084,
        "Longitude(deg)": -5.348840601332096,
        "Mean Anomaly(deg)": -27.142795097009312,
        "RAAN(deg)": 114.9947937967676,
        "Satellite Name": "Constellation 1 526",
        "Satellite Number": 526,
        "Semi-Major Axis(m)": 7083131.272910544,
        "Time(s)": 92
    },
    {
        "Altitude(m)": 707755.6759104449,
        "Argument of Periapsis(deg)": 0.005575164580822722,
        "Eccentricity": 0.0,
        "Inclination(deg)": 45.0,
        "Latitude(deg)": -18.927450155787348,
        "Longitude(deg)": -5.305121536308373,
        "Mean Anomaly(deg)": -27.082093956759408,
        "RAAN(deg)": 114.99473720760204,
        "Satellite Name": "Constellation 1 526",
        "Satellite Number": 526,
        "Semi-Major Axis(m)": 7083131.272910544,
        "Time(s)": 93
    },
    {
        "Altitude(m)": 707742.7972003815,
        "Argument of Periapsis(deg)": 0.005635112587068129,
        "Eccentricity": 0.0,
        "Inclination(deg)": 45.0,
        "Latitude(deg)": -18.88690044297082,
        "Longitude(deg)": -5.261425410657936,
        "Mean Anomaly(deg)": -27.02139281650951,
        "RAAN(deg)": 114.99468061843646,
        "Satellite Name": "Constellation 1 526",
        "Satellite Number": 526,
        "Semi-Major Axis(m)": 7083131.272910544,
        "Time(s)": 94
    }
]